{"type": "FeatureCollection", "features": [{"type": "Feature", "properties": {"norad_id": 43879, "name": "ISAT", "group": "active", "lat": 21.140199328713322, "lon": 26.905124782813527, "alt_km": 741.8519575880209, "timestamp": "2025-12-01T14:50:05.544497+00:00", "meta": {"OBJECT_NAME": "ISAT", "OBJECT_ID": "2018-111D", "EPOCH": "2025-12-01T07:26:08.863584", "MEAN_MOTION": 15.40578848, "ECCENTRICITY": 0.00047321, "INCLINATION": 97.5899, "RA_OF_ASC_NODE": 254.5615, "ARG_OF_PERICENTER": 324.7668, "MEAN_ANOMALY": 35.3264, "EPHEMERIS_TYPE": 0, "CLASSIFICATION_TYPE": "U", "NORAD_CAT_ID": 43879, "ELEMENT_SET_NO": 999, "REV_AT_EPOCH": 38048, "BSTAR": 0.0011729339, "MEAN_MOTION_DOT": 0.00047863, "MEAN_MOTION_DDOT": 0}, "tle": {"line1": "1 44078U 19018A   25335.33675815  .00000306  00000+0  10317-3 0  9991", "line2": "2 44078  98.4952  29.9376 0020002  93.7372 266.6106 14.43617558351519"}}, "geometry": {"type": "Point", "coordinates": [26.905124782813527, 21.140199328713322]}}, {"type": "Feature", "properties": {"norad_id": 49399, "name": "Z-SAT", "group": "active", "lat": 82.22652298713354, "lon": -54.4322428428192, "alt_km": 502.73103895885106, "timestamp": "2025-12-01T14:50:05.544548+00:00", "meta": {"OBJECT_NAME": "Z-SAT", "OBJECT_ID": "2021-102E", "EPOCH": "2025-12-01T07:04:39.415296", "MEAN_MOTION": 15.16262522, "ECCENTRICITY": 0.00163264, "INCLINATION": 97.3605, "RA_OF_ASC_NODE": 11.5832, "ARG_OF_PERICENTER": 212.7506, "MEAN_ANOMALY": 147.2717, "EPHEMERIS_TYPE": 0, "CLASSIFICATION_TYPE": "U", "NORAD_CAT_ID": 49399, "ELEMENT_SET_NO": 999, "REV_AT_EPOCH": 22343, "BSTAR": 0.00029457958, "MEAN_MOTION_DOT": 5.653e-05, "MEAN_MOTION_DDOT": 0}, "tle": {"line1": "1 62626U 25009T   25335.20597490  .00011335  00000+0  54551-3 0  9997", "line2": "2 62626  97.4149  52.6085 0001741 289.1974  70.9071 15.18934343 48644"}}, "geometry": {"type": "Point", "coordinates": [-54.4322428428192, 82.22652298713354]}}]}